GENESIS 2               
1 31789U 07028A   24333.92794692  .00055167  00000+0  99103-3 0  9996
2 31789  64.4861  12.0666 0010171 289.0242  70.9794 15.49494155962827
COSMOS 2428             
1 31792U 07029A   24333.60977159  .00000626  00000+0  36265-3 0  9997
2 31792  70.9408 101.6698 0007617 195.8028 164.2857 14.12812114898268
ZHONGXING-6B            
1 31800U 07031A   24334.00418461 -.00000333  00000+0  00000+0 0  9991
2 31800   0.9364  88.7374 0004284 168.3781 288.0677  1.00275499 63807
DIRECTV 10              
1 31862U 07032A   24333.33206016 -.00000077  00000+0  00000+0 0  9991
2 31862   0.0041 239.5553 0000715 345.7853 219.1504  1.00272016 63737
BSAT-3A                 
1 32019U 07036B   24334.03700870 -.00000322  00000+0  00000+0 0  9998
2 32019   0.0327 224.9814 0004287  10.4140 316.2052  1.00272828 63390
WORLDVIEW-1 (WV-1)      
1 32060U 07041A   24333.58045166  .00020447  00000+0  83093-3 0  9995
2 32060  97.3919  90.5155 0000662 138.4701 221.6587 15.24586690956843
OPTUS D2                
1 32252U 07044A   24333.83279971 -.00000082  00000+0  00000+0 0  9999
2 32252   0.6065  89.3080 0006643 168.8337 270.0170  1.00271998 62907
INTELSAT 11 (IS-11)     
1 32253U 07044B   24334.07896688 -.00000241  00000+0  00000+0 0  9994
2 32253   2.0905  85.6719 0004019 180.1017 148.1286  1.00272335 62866
WGS F1 (USA 195)        
1 32258U 07046A   24334.07896688 -.00000239  00000+0  00000+0 0  9998
2 32258   0.1128  92.6012 0000675 118.3570 203.4374  1.00265250 62650
NAVSTAR 60 (USA 196)    
1 32260U 07047A   24333.83512614  .00000008  00000+0  00000+0 0  9992
2 32260  53.7024 103.4295 0159482  78.9126 282.8479  2.00556615125471
GLOBALSTAR M070         
1 32264U 07048B   24333.58239611 -.00000053  00000+0  28336-3 0  9999
2 32264  51.9774  19.6218 0000398  87.0225  32.2290 12.62306600788336
GLOBALSTAR M066         
1 32265U 07048C   24333.82211939 -.00000056  00000+0  30725-3 0  9998
2 32265  51.9671 249.0012 0001130  39.3696 359.5615 12.42166856790481
COSMOS 2433 [GLONASS-M] 
1 32275U 07052A   24333.92865314 -.00000040  00000+0  00000+0 0  9999
2 32275  65.8693 334.8913 0005770 253.7267 106.2414  2.13104140133056
COSMOS 2432 [GLONASS-M] 
1 32276U 07052B   24333.76477225 -.00000040  00000+0  00000+0 0  9992
2 32276  65.8847 335.0136 0011421 311.1888 228.7520  2.13103281133037
YAOGAN-3                
1 32289U 07055A   24334.11258799  .00005751  00000+0  64673-3 0  9995
2 32289  97.8738 357.9313 0001848  97.7033 262.4392 14.87078678921825
SKYNET 5B               
1 32294U 07056B   24334.09183031  .00000168  00000+0  00000+0 0  9992
2 32294   3.8076  80.2089 0003798 164.5511 241.8425  1.00271264 62527
ASTRA 4A                
1 32299U 07057A   24333.87337292  .00000060  00000+0  00000+0 0  9994
2 32299   0.0481  75.9439 0002599 161.6733 149.8876  1.00270819 45975
COSMO-SKYMED 2          
1 32376U 07059A   24334.09791597  .00001814  00000+0  23448-3 0  9992
2 32376  97.8862 154.8645 0001575  86.7432 273.3961 14.82145397918377
RADARSAT-2              
1 32382U 07061A   24334.09310090 -.00000077  00000+0 -12791-4 0  9999
2 32382  98.5795 338.1006 0001100  88.3899 271.7410 14.29977715885309
NAVSTAR 61 (USA 199)    
1 32384U 07062A   24333.65747459 -.00000061  00000+0  00000+0 0  9993
2 32384  55.5020 296.8136 0027704 157.1887 202.7325  2.00556038124165
HORIZONS-2              
1 32388U 07063B   24333.78631862 -.00000226  00000+0  00000+0 0  9995
2 32388   1.1372  87.6181 0001962 173.9028  15.9469  1.00273173 62140
COSMOS 2434 [GLONASS-M] 
1 32393U 07065A   24334.11979330  .00000073  00000+0  00000+0 0  9995
2 32393  64.3153 210.9922 0004084  70.7505 327.8553  2.13101401131763
COSMOS 2436 [GLONASS-M] 
1 32395U 07065C   24333.19462756  .00000063  00000+0  00000+0 0  9992
2 32395  64.3238 211.0897 0017334   6.6864 176.8669  2.13100153131662
THURAYA-3               
1 32404U 08001A   24333.80778720 -.00000278  00000+0  00000+0 0  9992
2 32404   5.0830  33.6624 0002269 221.8051 202.0417  1.00272827 61825
THOR 5                  
1 32487U 08006A   24333.87233035  .00000019  00000+0  00000+0 0  9992
2 32487   0.0190 266.2982 0002431 351.2637 124.0077  1.00270907 61642
AMC-14                  
1 32708U 08011A   24333.82619102  .00000081  00000+0  00000+0 0  9991
2 32708  23.3037  27.3236 0036373 351.0385   4.7672  1.00274789 62439
NAVSTAR 62 (USA 201)    
1 32711U 08012A   24333.74632353  .00000110  00000+0  00000+0 0  9993
2 32711  54.4529 172.4901 0190526 240.4530 117.7101  2.00573364122418
DIRECTV 11              
1 32729U 08013A   24333.07061723 -.00000099  00000+0  00000+0 0  9993
2 32729   0.0061 208.0413 0000256 347.3577 158.3271  1.00268651 39917
ICO G1                  
1 32763U 08016A   24333.78249588 -.00000148  00000+0  00000+0 0  9994
2 32763   5.1590  36.0585 0002381 202.3592  18.6129  1.00272235 60877
VINASAT-1               
1 32767U 08018A   24333.89856828 -.00000300  00000+0  00000+0 0  9993
2 32767   0.0115 328.9447 0001954 295.3505 259.4377  1.00273120 60918
STAR ONE C2             
1 32768U 08018B   24333.85955891 -.00000249  00000+0  00000+0 0  9992
2 32768   0.0360  25.0908 0002640 231.9502  55.6736  1.00272371 60983
