OBJECT_NAME,OBJECT_ID,EPOCH,MEAN_MOTION,ECCENTRICITY,INCLINATION,RA_OF_ASC_NODE,ARG_OF_PERICENTER,MEAN_ANOMALY,EPHEMERIS_TYPE,CLASSIFICATION_TYPE,NORAD_CAT_ID,ELEMENT_SET_NO,REV_AT_EPOCH,BSTAR,MEAN_MOTION_DOT,MEAN_MOTION_DDOT
GENESIS 2,2007-028A,2024-11-28T22:16:14.613888,15.49494155,.0010171,64.4861,12.0666,289.0242,70.9794,0,U,31789,999,96282,.99103E-3,.55167E-3,0
COSMOS 2428,2007-029A,2024-11-28T14:38:04.265376,14.12812114,.0007617,70.9408,101.6698,195.8028,164.2857,0,U,31792,999,89826,.36265E-3,.626E-5,0
ZHONGXING-6B,2007-031A,2024-11-29T00:06:01.550304,1.00275499,.0004284,0.9364,88.7374,168.3781,288.0677,0,U,31800,999,6380,0,-.333E-5,0
DIRECTV 10,2007-032A,2024-11-28T07:58:09.997824,1.00272016,.0000715,0.0041,239.5553,345.7853,219.1504,0,U,31862,999,6373,0,-.77E-6,0
BSAT-3A,2007-036B,2024-11-29T00:53:17.551680,1.00272828,.0004287,0.0327,224.9814,10.4140,316.2052,0,U,32019,999,6339,0,-.322E-5,0
WORLDVIEW-1 (WV-1),2007-041A,2024-11-28T13:55:51.023424,15.24586690,.0000662,97.3919,90.5155,138.4701,221.6587,0,U,32060,999,95684,.83093E-3,.20447E-3,0
OPTUS D2,2007-044A,2024-11-28T19:59:13.894944,1.00271998,.0006643,0.6065,89.3080,168.8337,270.0170,0,U,32252,999,6290,0,-.82E-6,0
INTELSAT 11 (IS-11),2007-044B,2024-11-29T01:53:42.738432,1.00272335,.0004019,2.0905,85.6719,180.1017,148.1286,0,U,32253,999,6286,0,-.241E-5,0
WGS F1 (USA 195),2007-046A,2024-11-29T01:53:42.738432,1.00265250,.0000675,0.1128,92.6012,118.3570,203.4374,0,U,32258,999,6265,0,-.239E-5,0
NAVSTAR 60 (USA 196),2007-047A,2024-11-28T20:02:34.898496,2.00556615,.0159482,53.7024,103.4295,78.9126,282.8479,0,U,32260,999,12547,0,.8E-7,0
GLOBALSTAR M070,2007-048B,2024-11-28T13:58:39.023904,12.62306600,.0000398,51.9774,19.6218,87.0225,32.2290,0,U,32264,999,78833,.28336E-3,-.53E-6,0
GLOBALSTAR M066,2007-048C,2024-11-28T19:43:51.115296,12.42166856,.000113,51.9671,249.0012,39.3696,359.5615,0,U,32265,999,79048,.30725E-3,-.56E-6,0
COSMOS 2433 [GLONASS-M],2007-052A,2024-11-28T22:17:15.631296,2.13104140,.000577,65.8693,334.8913,253.7267,106.2414,0,U,32275,999,13305,0,-.4E-6,0
COSMOS 2432 [GLONASS-M],2007-052B,2024-11-28T18:21:16.322400,2.13103281,.0011421,65.8847,335.0136,311.1888,228.7520,0,U,32276,999,13303,0,-.4E-6,0
YAOGAN-3,2007-055A,2024-11-29T02:42:07.602336,14.87078678,.0001848,97.8738,357.9313,97.7033,262.4392,0,U,32289,999,92182,.64673E-3,.5751E-4,0
SKYNET 5B,2007-056B,2024-11-29T02:12:14.138784,1.00271264,.0003798,3.8076,80.2089,164.5511,241.8425,0,U,32294,999,6252,0,.168E-5,0
ASTRA 4A,2007-057A,2024-11-28T20:57:39.420288,1.00270819,.0002599,0.0481,75.9439,161.6733,149.8876,0,U,32299,999,4597,0,.6E-6,0
COSMO-SKYMED 2,2007-059A,2024-11-29T02:20:59.939808,14.82145397,.0001575,97.8862,154.8645,86.7432,273.3961,0,U,32376,999,91837,.23448E-3,.1814E-4,0
RADARSAT-2,2007-061A,2024-11-29T02:14:03.917760,14.29977715,.00011,98.5795,338.1006,88.3899,271.7410,0,U,32382,999,88530,-.12791E-4,-.77E-6,0
NAVSTAR 61 (USA 199),2007-062A,2024-11-28T15:46:45.804576,2.00556038,.0027704,55.5020,296.8136,157.1887,202.7325,0,U,32384,999,12416,0,-.61E-6,0
HORIZONS-2,2007-063B,2024-11-28T18:52:17.928768,1.00273173,.0001962,1.1372,87.6181,173.9028,15.9469,0,U,32388,999,6214,0,-.226E-5,0
COSMOS 2434 [GLONASS-M],2007-065A,2024-11-29T02:52:30.141120,2.13101401,.0004084,64.3153,210.9922,70.7505,327.8553,0,U,32393,999,13176,0,.73E-6,0
COSMOS 2436 [GLONASS-M],2007-065C,2024-11-28T04:40:15.821184,2.13100153,.0017334,64.3238,211.0897,6.6864,176.8669,0,U,32395,999,13166,0,.63E-6,0
THURAYA-3,2008-001A,2024-11-28T19:23:12.814080,1.00272827,.0002269,5.0830,33.6624,221.8051,202.0417,0,U,32404,999,6182,0,-.278E-5,0
THOR 5,2008-006A,2024-11-28T20:56:09.342240,1.00270907,.0002431,0.0190,266.2982,351.2637,124.0077,0,U,32487,999,6164,0,.19E-6,0
AMC-14,2008-011A,2024-11-28T19:49:42.904128,1.00274789,.0036373,23.3037,27.3236,351.0385,4.7672,0,U,32708,999,6243,0,.81E-6,0
NAVSTAR 62 (USA 201),2008-012A,2024-11-28T17:54:42.352992,2.00573364,.0190526,54.4529,172.4901,240.4530,117.7101,0,U,32711,999,12241,0,.11E-5,0
DIRECTV 11,2008-013A,2024-11-28T01:41:41.328672,1.00268651,.0000256,0.0061,208.0413,347.3577,158.3271,0,U,32729,999,3991,0,-.99E-6,0
ICO G1,2008-016A,2024-11-28T18:46:47.644032,1.00272235,.0002381,5.1590,36.0585,202.3592,18.6129,0,U,32763,999,6087,0,-.148E-5,0
VINASAT-1,2008-018A,2024-11-28T21:33:56.299392,1.00273120,.0001954,0.0115,328.9447,295.3505,259.4377,0,U,32767,999,6091,0,-.3E-5,0
STAR ONE C2,2008-018B,2024-11-28T20:37:45.889824,1.00272371,.000264,0.0360,25.0908,231.9502,55.6736,0,U,32768,999,6098,0,-.249E-5,0
